{"fetched_at":"2026-03-29T16:36:15Z","count":15609,"tles":[{"name":"STARLINK-4606","line1":"1 53632U 22104AW  26087.55584712  .00006994  00000+0  45688-3 0  9999","line2":"2 53632  53.2158 139.4132 0001188  78.7813 281.3313 15.08855407199070","category":"Starlink"}]}